SL-3 R/B
1 14208U 83075B   01248.93840011 +.00002252 +00000-0 +21304-3 0 08138
2 14208 097.9227 231.3180 0030391 183.4082 176.6914 14.94364907981686
COSMOS 1500
1 14372U 83099A   01248.82965254 +.00003877 +00000-0 +36281-3 0 03882
2 14372 082.5370 167.6955 0015761 314.9553 045.0385 14.93767708970455
SL-14 R/B
1 14373U 83099B   01248.94827525 +.00000743 +00000-0 +94373-4 0 02700
2 14373 082.5401 218.3388 0023184 121.9366 238.4110 14.80170396967111
SL-8 R/B
1 14484U 83111B   01249.16987667  .00022593  00000-0  11137-2 0  4307
2 14484  82.8653 120.3995 0648750  45.6980 319.5573 14.18916766886909
COSMOS 1510
1 14521U 83115A   01249.19800297 -.00000004  00000-0  10000-3 0  4403
2 14521  73.6126 196.6863 0027488 335.6706  24.3037 12.41078017806428
COSMOS 1515
1 14551U 83122A   01249.38062112  .00003966  00000-0  37084-3 0  6874
2 14551  82.5181   8.3439 0013592 214.8066 145.2269 14.93831709702673
SL-14 R/B
1 14552U 83122B   01248.90644152 +.00000607 +00000-0 +76896-4 0 04807
2 14552 082.5229 060.3994 0020059 045.8433 314.4426 14.80021078955544
COSMOS 1536
1 14699U 84013A   01248.63925126 +.00002437 +00000-0 +24780-3 0 05787
2 14699 082.5301 094.6723 0018770 087.5410 272.7949 14.90270140949739
SL-14 R/B
1 14700U 84013B   01248.69305179 +.00000620 +00000-0 +78811-4 0 00463
2 14700 082.5390 130.6374 0019385 211.9606 148.0426 14.79940956947409
COSMOS 1544
1 14819U 84027A   01249.21961201  .00003246  00000-0  28911-3 0  5964
2 14819  82.5340 259.7035 0016483 112.7452 247.5512 14.95639970946033
SL-14 R/B
1 14820U 84027B   01248.72578862 +.00000656 +00000-0 +83081-4 0 02631
2 14820 082.5436 317.6198 0019279 322.4967 037.4900 14.80219855942204
SL-8 R/B
1 14966U 84043B   01248.89091247 +.00000086 +00000-0 +76081-4 0 01600
2 14966 082.9709 018.2109 0015501 296.4867 063.4697 13.73931425868407
COSMOS 1589
1 15171U 84084A   01248.71827859 +.00000018 +00000-0 +55373-4 0 05892
2 15171 082.5959 303.6545 0006554 003.2085 356.9035 12.42100612774423
COSMOS 1603
1 15333U 84106A   01249.37706252  .00000156  00000-0  10824-3 0  4302
2 15333  71.0217 273.7485 0020582 331.5249  28.4747 14.13359514873786
ERBS
1 15354U 84108B   01249.19697032  .00001092  00000-0  11071-3 0  9133
2 15354  56.9936 303.7649 0007047  62.2491 297.9258 14.98591068922233
COSMOS 1606
1 15369U 84111A   01248.64743797 +.00002842 +00000-0 +26598-3 0 03972
2 15369 082.5135 311.2563 0018845 128.3829 231.9103 14.93615179913570
SL-14 R/B
1 15370U 84111B   01248.84131119 +.00000740 +00000-0 +93647-4 0 04409
2 15370 082.5163 359.3726 0021471 306.4445 053.4789 14.80379213910373
SL-8 R/B
1 15483U 85006B   01248.72537868 +.00000357 +00000-0 +13711-3 0 00498
2 15483 074.0413 117.5072 0018511 077.8872 282.4353 14.33946492869656
COSMOS 1626
1 15494U 85009A   01248.71346426 +.00003247 +00000-0 +28844-3 0 03071
2 15494 082.5193 118.9023 0017930 039.1914 321.0600 14.95725797899693
SL-14 R/B
1 15495U 85009B   01248.83167672 +.00000701 +00000-0 +88209-4 0 03657
2 15495 082.5257 174.7883 0019655 225.0226 134.9393 14.80552383896079
SL-14 R/B
1 15517U 85013B   01248.94574589 +.00000038 +00000-0 +20688-4 0 07146
2 15517 082.5365 350.9037 0013856 178.3570 181.7636 13.84676758837859
SL-14 R/B
1 15593U 85020B   01248.92928318 +.00000764 +00000-0 +96023-4 0 02472
2 15593 082.5366 243.7563 0011258 321.4439 038.5986 14.80817857890250
GEOSAT
1 15595U 85021A   01248.92213231 +.00000449 +00000-0 +20315-3 0 04434
2 15595 108.0433 036.9276 0002166 270.4779 089.6113 14.35283601862489
COSMOS 1656
1 15755U 85042A   01248.98772642 -.00000049 +00000-0 -82319-6 0 02742
2 15755 071.1059 257.1832 0035338 354.6112 005.4640 14.19375963842573
SL-12 R/B(2)
1 15772U 85042D   01248.96635966 +.00000016 +00000-0 +29765-4 0 01965
2 15772 071.1047 246.7065 0035593 354.0057 006.0642 14.20011533842892
COSMOS 1660
1 15821U 85047A   01248.87664346 -.00000004 +00000-0 +10000-3 0 06648
2 15821 073.6200 057.2352 0026970 071.0176 289.3787 12.40690520735162
SL-14 R/B
1 15890U 85058B   01248.94181860 +.00000716 +00000-0 +91222-4 0 02516
2 15890 082.5248 242.1928 0024151 102.2234 258.1694 14.79944944871319
SL-14 R/B
1 15945U 85069B   01248.70792610 +.00000582 +00000-0 +72826-4 0 02783
2 15945 082.5289 118.9648 0020177 178.2992 181.8293 14.80500169867076
SL-8 R/B
1 16012U 85079B   01248.92922449 +.00000314 +00000-0 +12146-3 0 00643
2 16012 074.0548 249.1075 0015276 157.2336 202.9501 14.34037853836886
SL-3 R/B
1 16111U 85090B   01248.94999091 +.00005165 +00000-0 +36947-3 0 08366
2 16111 097.6563 222.1593 0049418 044.2702 316.2464 15.03893138866600
SL-16 R/B
1 16182U 85097B   01249.38533723  .00000353  00000-0  20460-3 0   668
2 16182  70.9943 247.5305 0009343 219.4605 140.5842 14.15580549820471
SL-14 R/B
1 16263U 85108B   01248.66087951 +.00000568 +00000-0 +72473-4 0 02682
2 16263 082.5046 109.3308 0019927 207.2699 152.7455 14.79631820850959
SL-8 R/B
1 16494U 86005B   01248.92742531 +.00000089 +00000-0 +76223-4 0 00320
2 16494 082.9284 037.0273 0019495 140.1064 220.1529 13.76006922785181
SL-14 R/B
1 16496U 86006B   01248.80504007 +.00000765 +00000-0 +96343-4 0 01499
2 16496 082.5245 357.9572 0020525 337.2180 022.8125 14.80619626843345
SL-8 R/B
1 16511U 86008B   01248.83844688 +.00000076 +00000-0 +63467-4 0 09511
2 16511 082.9479 172.2528 0023815 174.5654 185.5758 13.75362211783898
COSMOS 1732
1 16593U 86015A   01248.97366371 -.00000017 +00000-0 +00000-0 0 05435
2 16593 073.6086 193.6902 0028152 067.6173 292.7850 12.40938799705304
COSMOS 1733
1 16611U 86018A   01248.97940151 +.00003182 +00000-0 +29448-3 0 08059
2 16611 082.5076 240.2488 0013404 240.1652 119.8239 14.94182802841730
SL-14 R/B
1 16612U 86018B   01249.18493099  .00000258  00000-0  30415-4 0  2139
2 16612  82.5137 291.3548 0020082  57.6804 302.6312 14.80702617737446
COSMOS 1736
1 16647U 86024A   01248.86947564 -.00000106 +00000-0 -17775-4 0 01350
2 16647 064.9885 155.0921 0059325 274.5983 084.8301 13.79237736780345
SL-14 R/B
1 16720U 86034B   01248.91499620  .00000795  00000-0  10165-3 0   406
2 16720  82.5537 203.3914 0021549   2.3346 357.7966 14.80024196825664
COSMOS 1758
1 16791U 86046A   01248.89067928  .00003032  00000-0  32041-3 0  4954
2 16791  82.4761 182.9842 0024178  48.8905 311.4395 14.88721035823293
COSMOS 1766
1 16881U 86055A   01248.81049083 +.00003036 +00000-0 +30680-3 0 00180
2 16881 082.5162 178.0304 0018058 142.8200 217.4274 14.90609111816938
SL-14 R/B
1 16882U 86055B   01248.97152969 +.00000804 +00000-0 +10389-3 0 00674
2 16882 082.5203 216.7840 0019413 281.0953 078.8075 14.79673536814437
EGP
1 16908U 86061A   01248.48042206 -.00000083 +00000-0 +10000-3 0 06078
2 16908 050.0099 256.1554 0011430 185.4479 174.6197 12.44436436353760
COSMOS 1771
1 16917U 86062A   01248.78514171 -.00000104 +00000-0 -13930-4 0 09442
2 16917 064.9861 343.3214 0049737 356.5584 003.5126 13.82345424760899
COSMOS 1782
1 16986U 86074A   01248.98169724 +.00002606 +00000-0 +26739-3 0 02331
2 16986 082.5095 259.8547 0016894 009.9509 350.2042 14.89974100807544
SL-14 R/B
1 16987U 86074B   01248.60889376 +.00000620 +00000-0 +79344-4 0 00785
2 16987 082.5169 296.7516 0020587 126.5508 233.7608 14.79649040805016
SL-8 R/B
1 17160U 86093B   01248.85098187 +.00000120 +00000-0 +11089-3 0 00684
2 17160 082.9274 018.3564 0040393 005.6679 354.4927 13.74079949741210
COSMOS 1803
1 17177U 86094A   01248.83356280 +.00000024 +00000-0 +10000-3 0 06852
2 17177 082.6073 145.7412 0004382 037.0873 323.0508 12.41517432669080
COSMOS 1805
1 17191U 86097A   01249.33170403  .00003056  00000-0  29567-3 0   768
2 17191  82.5030 210.6323 0014253 172.5362 187.6117 14.92392031798130
SL-14 R/B
1 17291U 87001B   01248.85508625 +.00000030 +00000-0 +13373-4 0 06249
2 17291 082.4671 169.8267 0011808 005.3259 354.8022 13.84370583741199
COSMOS 1812
1 17295U 87003A   01248.67201749 +.00002610 +00000-0 +24984-3 0 01444
2 17295 082.5285 318.1817 0014467 302.7174 057.2658 14.92764864792665
COSMOS 1818
1 17369U 87011A   01248.86631906 +.00000074 +00000-0 +66264-4 0 00593
2 17369 065.0037 024.7604 0015469 283.8292 076.1071 14.30788088813844
MOS 1A (MOMO 1)
1 17527U 87018A   01248.58034705 -.00000026 +00000-0 +10000-4 0 02945
2 17527 098.7247 270.9475 0019391 070.4848 289.8409 14.01184930741866
N-2 R/B
1 17528U 87018B   01248.94815136 +.00000585 +00000-0 +15133-3 0 00860
2 17528 097.4091 078.3041 0163739 304.0012 054.5721 14.45415116765427
COSMOS 1823
1 17535U 87020A   01248.92401602 -.00000004 +00000-0 +10000-3 0 06825
2 17535 073.5960 303.9425 0028030 244.2132 115.6018 12.41198901659031
COSMOS 1825
1 17566U 87024A   01248.73728316 +.00003171 +00000-0 +29314-3 0 08531
2 17566 082.5250 130.3048 0017689 061.9953 298.3054 14.94161274786047
SL-14 R/B
1 17567U 87024B   01248.89261105 +.00000740 +00000-0 +94031-4 0 09569
2 17567 082.5302 181.4823 0018632 238.0186 121.9216 14.80282564782686
COSMOS 1833
1 17589U 87027A   01249.39802114 -.00000140  00000-0 -49594-4 0  1576
2 17589  70.9191  53.6005 0003562  55.3662 304.7816 14.12648345746409
SL-16 R/B
1 17590U 87027B   01249.40833667 -.00000279  00000-0 -11695-3 0   973
2 17590  70.9973  40.1223 0002878  94.6163 265.5288 14.16154153748078
SL-14 R/B
1 17912U 87038B   01248.92070343 +.00000813 +00000-0 +10503-3 0 09601
2 17912 082.4999 046.3192 0023230 088.8567 271.5321 14.79596715774351
COSMOS 1844
1 17973U 87041A   01249.22647935 -.00000054  00000-0 -31323-5 0  1799
2 17973  70.8941 173.0868 0028931 130.3999 229.9653 14.13295198738656
SL-16 R/B
1 17974U 87041B   01248.80663253 +.00000214 +00000-0 +13133-3 0 00000
2 17974 071.0074 166.6922 0015186 197.9168 162.1464 14.16513999740297
COSMOS 1860
1 18122U 87052A   01248.90514996 -.00000049 +00000-0 +35198-4 0 05501
2 18122 065.0081 087.4531 0058489 315.9551 043.6852 13.84660739719830
SL-14 R/B
1 18153U 87055B   01248.65504230 +.00000615 +00000-0 +78416-4 0 09490
2 18153 082.5009 103.9099 0022141 314.8583 045.0829 14.79817375764813
